{
  "type": "FeatureCollection",
  "features": [
    {
      "type": "Feature",
      "properties": {
        "norad_id": 37562,
        "name": "IRIDIUM 33 DEB",
        "group": "iridium-33-debris",
        "lat": -75.33115664295765,
        "lon": -119.27859365581055,
        "alt_km": 723.286028904452,
        "timestamp": "2025-12-05T14:45:15.683414+00:00",
        "meta_object_name": "IRIDIUM 33 DEB",
        "meta_object_id": "1997-051XX",
        "meta_epoch": "2025-12-04T11:17:17.134944",
        "meta_mean_motion": 14.56353338,
        "meta_eccentricity": 0.0026575,
        "meta_inclination": 86.3754,
        "meta_ra_of_asc_node": 47.2063,
        "meta_arg_of_pericenter": 133.7683,
        "meta_mean_anomaly": 245.4514,
        "meta_ephemeris_type": 0,
        "meta_classification_type": "U",
        "meta_norad_cat_id": 37562,
        "meta_element_set_no": 999,
        "meta_rev_at_epoch": 86208,
        "meta_bstar": 0.0028306,
        "meta_mean_motion_dot": 0.00012638,
        "meta_mean_motion_ddot": 0,
        "tle_line1": "1 37562U 97051XX  25338.47033721  .00012638  00000+0  28306-2 0  9993",
        "tle_line2": "2 37562  86.3754  47.2063 0026575 133.7683 245.4514 14.56353338862086"
      },
      "geometry": {
        "type": "Point",
        "coordinates": [
          -119.27859365581055,
          -75.33115664295765
        ]
      }
    },
    {
      "type": "Feature",
      "properties": {
        "norad_id": 37565,
        "name": "IRIDIUM 33 DEB",
        "group": "iridium-33-debris",
        "lat": 17.27347795712607,
        "lon": -168.45458026404998,
        "alt_km": 715.7913589492791,
        "timestamp": "2025-12-05T14:45:15.683425+00:00",
        "meta_object_name": "IRIDIUM 33 DEB",
        "meta_object_id": "1997-051YA",
        "meta_epoch": "2025-12-03T20:38:42.302976",
        "meta_mean_motion": 14.51459123,
        "meta_eccentricity": 0.0015186,
        "meta_inclination": 86.3502,
        "meta_ra_of_asc_node": 13.4465,
        "meta_arg_of_pericenter": 109.8434,
        "meta_mean_anomaly": 250.441,
        "meta_ephemeris_type": 0,
        "meta_classification_type": "U",
        "meta_norad_cat_id": 37565,
        "meta_element_set_no": 999,
        "meta_rev_at_epoch": 65708,
        "meta_bstar": 0.0010607,
        "meta_mean_motion_dot": 4.261e-05,
        "meta_mean_motion_ddot": 0,
        "tle_line1": "1 37565U 97051YA  25337.86021184  .00004261  00000+0  10607-2 0  9996",
        "tle_line2": "2 37565  86.3502  13.4465 0015186 109.8434 250.4410 14.51459123657082"
      },
      "geometry": {
        "type": "Point",
        "coordinates": [
          -168.45458026404998,
          17.27347795712607
        ]
      }
    },
    {
      "type": "Feature",
      "properties": {
        "norad_id": 38017,
        "name": "IRIDIUM 33 DEB",
        "group": "iridium-33-debris",
        "lat": -40.40230133039277,
        "lon": 166.19950058401344,
        "alt_km": 800.9392716074808,
        "timestamp": "2025-12-05T14:45:15.683435+00:00",
        "meta_object_name": "IRIDIUM 33 DEB",
        "meta_object_id": "1997-051YD",
        "meta_epoch": "2025-12-01T06:29:11.103360",
        "meta_mean_motion": 14.48304289,
        "meta_eccentricity": 0.009214,
        "meta_inclination": 86.3439,
        "meta_ra_of_asc_node": 171.2047,
        "meta_arg_of_pericenter": 141.8586,
        "meta_mean_anomaly": 218.9187,
        "meta_ephemeris_type": 0,
        "meta_classification_type": "U",
        "meta_norad_cat_id": 38017,
        "meta_element_set_no": 999,
        "meta_rev_at_epoch": 61236,
        "meta_bstar": 0.0066574,
        "meta_mean_motion_dot": 0.00026341,
        "meta_mean_motion_ddot": 0,
        "tle_line1": "1 38017U 97051YD  25335.27026740  .00026341  00000+0  66574-2 0  9992",
        "tle_line2": "2 38017  86.3439 171.2047 0092140 141.8586 218.9187 14.48304289612362"
      },
      "geometry": {
        "type": "Point",
        "coordinates": [
          166.19950058401344,
          -40.40230133039277
        ]
      }
    },
    {
      "type": "Feature",
      "properties": {
        "norad_id": 38022,
        "name": "IRIDIUM 33 DEB",
        "group": "iridium-33-debris",
        "lat": -64.42849490722179,
        "lon": 11.728960353987313,
        "alt_km": 786.5463262304393,
        "timestamp": "2025-12-05T14:45:15.683445+00:00",
        "meta_object_name": "IRIDIUM 33 DEB",
        "meta_object_id": "1997-051YJ",
        "meta_epoch": "2025-12-03T09:43:50.752992",
        "meta_mean_motion": 14.41155819,
        "meta_eccentricity": 0.00470517,
        "meta_inclination": 86.2701,
        "meta_ra_of_asc_node": 20.531,
        "meta_arg_of_pericenter": 80.0356,
        "meta_mean_anomaly": 280.615,
        "meta_ephemeris_type": 0,
        "meta_classification_type": "U",
        "meta_norad_cat_id": 38022,
        "meta_element_set_no": 999,
        "meta_rev_at_epoch": 69059,
        "meta_bstar": 0.0013840286,
        "meta_mean_motion_dot": 4.54e-05,
        "meta_mean_motion_ddot": 0,
        "tle_line1": "1 38022U 97051YJ  25337.40544853  .00004540  00000+0  13840-2 0  9990",
        "tle_line2": "2 38022  86.2701  20.5310 0047051  80.0356 280.6150 14.41155819690591"
      },
      "geometry": {
        "type": "Point",
        "coordinates": [
          11.728960353987313,
          -64.42849490722179
        ]
      }
    },
    {
      "type": "Feature",
      "properties": {
        "norad_id": 38028,
        "name": "IRIDIUM 33 DEB",
        "group": "iridium-33-debris",
        "lat": -47.338940994165334,
        "lon": -0.6328799150696348,
        "alt_km": 765.7113198524185,
        "timestamp": "2025-12-05T14:45:15.683455+00:00",
        "meta_object_name": "IRIDIUM 33 DEB",
        "meta_object_id": "1997-051YQ",
        "meta_epoch": "2025-12-02T08:55:29.085888",
        "meta_mean_motion": 14.46151271,
        "meta_eccentricity": 0.00294346,
        "meta_inclination": 86.325,
        "meta_ra_of_asc_node": 4.7758,
        "meta_arg_of_pericenter": 153.8613,
        "meta_mean_anomaly": 206.4083,
        "meta_ephemeris_type": 0,
        "meta_classification_type": "U",
        "meta_norad_cat_id": 38028,
        "meta_element_set_no": 999,
        "meta_rev_at_epoch": 65345,
        "meta_bstar": 0.00044678043,
        "meta_mean_motion_dot": 1.624e-05,
        "meta_mean_motion_ddot": 0,
        "tle_line1": "1 38028U 97051YQ  25336.37186442  .00001624  00000+0  44678-3 0  9991",
        "tle_line2": "2 38028  86.3250   4.7758 0029434 153.8613 206.4083 14.46151271653455"
      },
      "geometry": {
        "type": "Point",
        "coordinates": [
          -0.6328799150696348,
          -47.338940994165334
        ]
      }
    },
    {
      "type": "Feature",
      "properties": {
        "norad_id": 38228,
        "name": "IRIDIUM 33 DEB",
        "group": "iridium-33-debris",
        "lat": 11.06627695780126,
        "lon": 52.22474006077048,
        "alt_km": 844.7905826310543,
        "timestamp": "2025-12-05T14:45:15.683466+00:00",
        "meta_object_name": "IRIDIUM 33 DEB",
        "meta_object_id": "1997-051ZC",
        "meta_epoch": "2025-12-04T12:04:12.154080",
        "meta_mean_motion": 14.27248103,
        "meta_eccentricity": 0.0063431,
        "meta_inclination": 86.2954,
        "meta_ra_of_asc_node": 51.9711,
        "meta_arg_of_pericenter": 216.1795,
        "meta_mean_anomaly": 205.5635,
        "meta_ephemeris_type": 0,
        "meta_classification_type": "U",
        "meta_norad_cat_id": 38228,
        "meta_element_set_no": 999,
        "meta_rev_at_epoch": 84664,
        "meta_bstar": 0.0006926,
        "meta_mean_motion_dot": 1.747e-05,
        "meta_mean_motion_ddot": 0,
        "tle_line1": "1 38228U 97051ZC  25338.50291845  .00001747  00000+0  69260-3 0  9994",
        "tle_line2": "2 38228  86.2954  51.9711 0063431 216.1795 205.5635 14.27248103846647"
      },
      "geometry": {
        "type": "Point",
        "coordinates": [
          52.22474006077048,
          11.06627695780126
        ]
      }
    },
    {
      "type": "Feature",
      "properties": {
        "norad_id": 38241,
        "name": "IRIDIUM 33 DEB",
        "group": "iridium-33-debris",
        "lat": -53.609615594735565,
        "lon": -11.263304556793885,
        "alt_km": 720.173466031596,
        "timestamp": "2025-12-05T14:45:15.683476+00:00",
        "meta_object_name": "IRIDIUM 33 DEB",
        "meta_object_id": "1997-051ZR",
        "meta_epoch": "2025-12-04T07:38:11.008608",
        "meta_mean_motion": 14.54784476,
        "meta_eccentricity": 0.0005686,
        "meta_inclination": 86.3226,
        "meta_ra_of_asc_node": 354.3146,
        "meta_arg_of_pericenter": 90.3994,
        "meta_mean_anomaly": 269.7864,
        "meta_ephemeris_type": 0,
        "meta_classification_type": "U",
        "meta_norad_cat_id": 38241,
        "meta_element_set_no": 999,
        "meta_rev_at_epoch": 60078,
        "meta_bstar": 0.0016772,
        "meta_mean_motion_dot": 7.21e-05,
        "meta_mean_motion_ddot": 0,
        "tle_line1": "1 38241U 97051ZR  25338.31818297  .00007210  00000+0  16772-2 0  9994",
        "tle_line2": "2 38241  86.3226 354.3146 0005686  90.3994 269.7864 14.54784476600785"
      },
      "geometry": {
        "type": "Point",
        "coordinates": [
          -11.263304556793885,
          -53.609615594735565
        ]
      }
    }
  ]
}